[
   {
      "name": "STARLINK-2014",
      "line1": "1 47637U 21012T   21092.91668981 -.00399408  00000-0 -34737-2 0  9996",
      "line2": "2 47637  53.0475 233.7133 0001304  63.4518  95.1495 15.69561893  1771",
      "bstar": -347.37,
      "inc": 53.0475,
      "raan": 233.7133,
      "ecc": 0.0001304,
      "argp": 63.4518,
      "nu": 95.1495,
      "mmo": 15.69561893,
      "a": 6738.28761
   },
   {
      "name": "STARLINK-2015",
      "line1": "1 47638U 21012U   21092.91668981  .00049906  00000-0  35890-3 0  9992",
      "line2": "2 47638  53.0466 233.6411 0001541  52.9918 136.4125 15.73129736  1770",
      "bstar": 35.89,
      "inc": 53.0466,
      "raan": 233.6411,
      "ecc": 0.0001541,
      "argp": 52.9918,
      "nu": 136.4125,
      "mmo": 15.73129736,
      "a": 6728.09551
   },
   {
      "name": "STARLINK-2016",
      "line1": "1 47639U 21012V   21092.91668981  .00044654  00000-0  32091-3 0  9998",
      "line2": "2 47639  53.0477 233.6805 0001384  50.6010 121.4849 15.73194512  1774",
      "bstar": 32.091,
      "inc": 53.0477,
      "raan": 233.6805,
      "ecc": 0.0001384,
      "argp": 50.601,
      "nu": 121.4849,
      "mmo": 15.73194512,
      "a": 6727.91082
   },
   {
      "name": "STARLINK-2018",
      "line1": "1 47640U 21012W   21092.91668981 -.00980478  00000-0 -53000-1 0  9996",
      "line2": "2 47640  53.0467 240.2585 0001418  79.5271  11.6801 15.17136227  1765",
      "bstar": -5300.0,
      "inc": 53.0467,
      "raan": 240.2585,
      "ecc": 0.0001418,
      "argp": 79.5271,
      "nu": 11.6801,
      "mmo": 15.17136227,
      "a": 6892.63777
   },
   {
      "name": "STARLINK-2019",
      "line1": "1 47641U 21012X   21092.91668981  .00041529  00000-0  29881-3 0  9992",
      "line2": "2 47641  53.0468 233.6297 0001411  62.7919 131.0632 15.73199058  1772",
      "bstar": 29.881,
      "inc": 53.0468,
      "raan": 233.6297,
      "ecc": 0.0001411,
      "argp": 62.7919,
      "nu": 131.0632,
      "mmo": 15.73199058,
      "a": 6727.89786
   },
   {
      "name": "STARLINK-2020",
      "line1": "1 47642U 21012Y   21092.91668981 -.01039824  00000-0 -26216-1 0  9998",
      "line2": "2 47642  53.0519 237.7626 0001218  67.7021 271.6269 15.42277695  1772",
      "bstar": -2621.6,
      "inc": 53.0519,
      "raan": 237.7626,
      "ecc": 0.0001218,
      "argp": 67.7021,
      "nu": 271.6269,
      "mmo": 15.42277695,
      "a": 6817.52579
   },
   {
      "name": "STARLINK-2022",
      "line1": "1 47643U 21012Z   21092.91668981 -.00055695  00000-0 -39430-3 0  9996",
      "line2": "2 47643  53.0474 233.6577 0001266  56.0679 126.2535 15.73239167  1773",
      "bstar": -39.43,
      "inc": 53.0474,
      "raan": 233.6577,
      "ecc": 0.0001266,
      "argp": 56.0679,
      "nu": 126.2535,
      "mmo": 15.73239167,
      "a": 6727.78351
   },
   {
      "name": "STARLINK-2026",
      "line1": "1 47644U 21012AA  21092.91668981 -.01090859  00000-0 -55504-1 0  9997",
      "line2": "2 47644  53.0533 240.3207 0001461  69.8898 166.7560 15.19068228  1750",
      "bstar": -5550.4,
      "inc": 53.0533,
      "raan": 240.3207,
      "ecc": 0.0001461,
      "argp": 69.8898,
      "nu": 166.756,
      "mmo": 15.19068228,
      "a": 6886.79234
   },
   {
      "name": "STARLINK-2027",
      "line1": "1 47645U 21012AB  21092.91668981  .00044584  00000-0  32100-3 0  9998",
      "line2": "2 47645  53.0472 233.6527 0001183  58.0107 126.2640 15.73151857  1770",
      "bstar": 32.1,
      "inc": 53.0472,
      "raan": 233.6527,
      "ecc": 0.0001183,
      "argp": 58.0107,
      "nu": 126.264,
      "mmo": 15.73151857,
      "a": 6728.03244
   },
   {
      "name": "STARLINK-2028",
      "line1": "1 47646U 21012AC  21092.91668981  .00047019  00000-0  33796-3 0  9997",
      "line2": "2 47646  53.0471 233.6498 0001150  44.9857 140.5739 15.73167738  1770",
      "bstar": 33.796,
      "inc": 53.0471,
      "raan": 233.6498,
      "ecc": 0.000115,
      "argp": 44.9857,
      "nu": 140.5739,
      "mmo": 15.73167738,
      "a": 6727.98716
   },
   {
      "name": "STARLINK-2030",
      "line1": "1 47647U 21012AD  21092.91668981 -.00997168  00000-0 -52054-1 0  9995",
      "line2": "2 47647  53.0512 240.3003 0001507  71.2986 117.5825 15.18390855  1751",
      "bstar": -5205.4,
      "inc": 53.0512,
      "raan": 240.3003,
      "ecc": 0.0001507,
      "argp": 71.2986,
      "nu": 117.5825,
      "mmo": 15.18390855,
      "a": 6888.84038
   },
   {
      "name": "STARLINK-2031",
      "line1": "1 47648U 21012AE  21092.91668981  .00044776  00000-0  32179-3 0  9990",
      "line2": "2 47648  53.0472 233.6658 0001557  46.4572 132.0216 15.73192780  1774",
      "bstar": 32.179,
      "inc": 53.0472,
      "raan": 233.6658,
      "ecc": 0.0001557,
      "argp": 46.4572,
      "nu": 132.0216,
      "mmo": 15.7319278,
      "a": 6727.91576
   },
   {
      "name": "STARLINK-2032",
      "line1": "1 47649U 21012AF  21092.91668981  .00047064  00000-0  33838-3 0  9997",
      "line2": "2 47649  53.0472 233.6664 0001472  49.3671 128.5262 15.73160563  1775",
      "bstar": 33.838,
      "inc": 53.0472,
      "raan": 233.6664,
      "ecc": 0.0001472,
      "argp": 49.3671,
      "nu": 128.5262,
      "mmo": 15.73160563,
      "a": 6728.00761
   },
   {
      "name": "STARLINK-2033",
      "line1": "1 47650U 21012AG  21092.91668981  .00047279  00000-0  33955-3 0  9997",
      "line2": "2 47650  53.0473 233.6589 0001274  55.0076 126.6607 15.73184901  1771",
      "bstar": 33.955,
      "inc": 53.0473,
      "raan": 233.6589,
      "ecc": 0.0001274,
      "argp": 55.0076,
      "nu": 126.6607,
      "mmo": 15.73184901,
      "a": 6727.93822
   },
   {
      "name": "STARLINK-2035",
      "line1": "1 47651U 21012AH  21092.91668981 -.00983401  00000-0 -52605-1 0  9997",
      "line2": "2 47651  53.0492 240.2691 0001517  77.1507  53.1028 15.17506668  1761",
      "bstar": -5260.5,
      "inc": 53.0492,
      "raan": 240.2691,
      "ecc": 0.0001517,
      "argp": 77.1507,
      "nu": 53.1028,
      "mmo": 15.17506668,
      "a": 6891.51601
   },
   {
      "name": "STARLINK-2036",
      "line1": "1 47652U 21012AJ  21092.91668981 -.00961505  00000-0 -53866-1 0  9999",
      "line2": "2 47652  53.0436 240.3188 0001346  76.4527 296.0940 15.15835480  1762",
      "bstar": -5386.6,
      "inc": 53.0436,
      "raan": 240.3188,
      "ecc": 0.0001346,
      "argp": 76.4527,
      "nu": 296.094,
      "mmo": 15.1583548,
      "a": 6896.58028
   },
   {
      "name": "STARLINK-2037",
      "line1": "1 47653U 21012AK  21092.91668981 -.00356804  00000-0 -33373-2 0  9992",
      "line2": "2 47653  53.0477 233.7887 0001287  64.9747  54.2669 15.67672217  1777",
      "bstar": -333.73,
      "inc": 53.0477,
      "raan": 233.7887,
      "ecc": 0.0001287,
      "argp": 64.9747,
      "nu": 54.2669,
      "mmo": 15.67672217,
      "a": 6743.70142
   },
   {
      "name": "STARLINK-2038",
      "line1": "1 47654U 21012AL  21092.91668981 -.00949813  00000-0 -53534-1 0  9991",
      "line2": "2 47654  53.0427 240.3538 0001302  74.9792 280.0861 15.15589113  1766",
      "bstar": -5353.4,
      "inc": 53.0427,
      "raan": 240.3538,
      "ecc": 0.0001302,
      "argp": 74.9792,
      "nu": 280.0861,
      "mmo": 15.15589113,
      "a": 6897.32764
   },
   {
      "name": "STARLINK-2039",
      "line1": "1 47655U 21012AM  21092.91668981 -.00975386  00000-0 -54376-1 0  9991",
      "line2": "2 47655  53.0456 240.2781 0001238  76.8395 311.9999 15.16049115  1766",
      "bstar": -5437.6,
      "inc": 53.0456,
      "raan": 240.2781,
      "ecc": 0.0001238,
      "argp": 76.8395,
      "nu": 311.9999,
      "mmo": 15.16049115,
      "a": 6895.93237
   },
   {
      "name": "STARLINK-2040",
      "line1": "1 47656U 21012AN  21092.91668981  .00046874  00000-0  33655-3 0  9990",
      "line2": "2 47656  53.0474 233.6619 0001574  56.4406 123.9622 15.73194568  1774",
      "bstar": 33.655,
      "inc": 53.0474,
      "raan": 233.6619,
      "ecc": 0.0001574,
      "argp": 56.4406,
      "nu": 123.9622,
      "mmo": 15.73194568,
      "a": 6727.91066
   },
   {
      "name": "STARLINK-2041",
      "line1": "1 47657U 21012AP  21092.91668981 -.01021155  00000-0 -52754-1 0  9998",
      "line2": "2 47657  53.0542 240.3162 0001458  76.4562 144.4183 15.18819634  1750",
      "bstar": -5275.4,
      "inc": 53.0542,
      "raan": 240.3162,
      "ecc": 0.0001458,
      "argp": 76.4562,
      "nu": 144.4183,
      "mmo": 15.18819634,
      "a": 6887.54379
   },
   {
      "name": "STARLINK-2042",
      "line1": "1 47658U 21012AQ  21092.91668981 -.01019514  00000-0 -52019-1 0  9999",
      "line2": "2 47658  53.0531 240.2936 0001209  57.2960 194.9875 15.19242573  1751",
      "bstar": -5201.9,
      "inc": 53.0531,
      "raan": 240.2936,
      "ecc": 0.0001209,
      "argp": 57.296,
      "nu": 194.9875,
      "mmo": 15.19242573,
      "a": 6886.26546
   },
   {
      "name": "STARLINK-2043",
      "line1": "1 47659U 21012AR  21092.91668981  .00044779  00000-0  32140-3 0  9993",
      "line2": "2 47659  53.0470 233.6398 0008805 316.3774 233.6107 15.73176415  1775",
      "bstar": 32.14,
      "inc": 53.047,
      "raan": 233.6398,
      "ecc": 0.0008805,
      "argp": 316.3774,
      "nu": 233.6107,
      "mmo": 15.73176415,
      "a": 6727.96242
   },
   {
      "name": "STARLINK-2044",
      "line1": "1 47660U 21012AS  21092.91668981  .00045492  00000-0  32676-3 0  9992",
      "line2": "2 47660  53.0473 233.6476 0001262  53.1752 133.6211 15.73198613  1778",
      "bstar": 32.676,
      "inc": 53.0473,
      "raan": 233.6476,
      "ecc": 0.0001262,
      "argp": 53.1752,
      "nu": 133.6211,
      "mmo": 15.73198613,
      "a": 6727.89913
   }
]